{
  "type": "FeatureCollection",
  "features": [
    {
      "type": "Feature",
      "properties": {
        "norad_id": 33860,
        "name": "IRIDIUM 33 DEB",
        "group": "iridium-33-debris",
        "lat": 46.73161099165094,
        "lon": -152.02588858574154,
        "alt_km": 667.4468986856955,
        "timestamp": "2025-12-02T08:59:33.099046+00:00",
        "meta_object_name": "IRIDIUM 33 DEB",
        "meta_object_id": "1997-051AD",
        "meta_epoch": "2025-12-02T03:45:02.627424",
        "meta_mean_motion": 14.67136419,
        "meta_eccentricity": 0.0008731,
        "meta_inclination": 86.3852,
        "meta_ra_of_asc_node": 31.9214,
        "meta_arg_of_pericenter": 32.1798,
        "meta_mean_anomaly": 27.9774,
        "meta_ephemeris_type": 0,
        "meta_classification_type": "U",
        "meta_norad_cat_id": 33860,
        "meta_element_set_no": 999,
        "meta_rev_at_epoch": 88567,
        "meta_bstar": 0.001456,
        "meta_mean_motion_dot": 8.21e-05,
        "meta_mean_motion_ddot": 0,
        "tle_line1": "1 33860U 97051AD  25336.15628041  .00008210  00000+0  14560-2 0  9996",
        "tle_line2": "2 33860  86.3852  31.9214 0008731  32.1798  27.9774 14.67136419885675"
      },
      "geometry": {
        "type": "Point",
        "coordinates": [
          -152.02588858574154,
          46.73161099165094
        ]
      }
    },
    {
      "type": "Feature",
      "properties": {
        "norad_id": 33862,
        "name": "IRIDIUM 33 DEB",
        "group": "iridium-33-debris",
        "lat": 86.35827949246108,
        "lon": 141.6109014920668,
        "alt_km": 619.09610288986,
        "timestamp": "2025-12-02T08:59:33.099059+00:00",
        "meta_object_name": "IRIDIUM 33 DEB",
        "meta_object_id": "1997-051AF",
        "meta_epoch": "2025-12-02T03:56:54.078720",
        "meta_mean_motion": 14.69187749,
        "meta_eccentricity": 0.0054043,
        "meta_inclination": 86.4106,
        "meta_ra_of_asc_node": 42.1919,
        "meta_arg_of_pericenter": 104.4608,
        "meta_mean_anomaly": 315.3783,
        "meta_ephemeris_type": 0,
        "meta_classification_type": "U",
        "meta_norad_cat_id": 33862,
        "meta_element_set_no": 999,
        "meta_rev_at_epoch": 88668,
        "meta_bstar": 0.0016056,
        "meta_mean_motion_dot": 9.692e-05,
        "meta_mean_motion_ddot": 0,
        "tle_line1": "1 33862U 97051AF  25336.16451480  .00009692  00000+0  16056-2 0  9997",
        "tle_line2": "2 33862  86.4106  42.1919 0054043 104.4608 315.3783 14.69187749886686"
      },
      "geometry": {
        "type": "Point",
        "coordinates": [
          141.6109014920668,
          86.35827949246108
        ]
      }
    },
    {
      "type": "Feature",
      "properties": {
        "norad_id": 33866,
        "name": "IRIDIUM 33 DEB",
        "group": "iridium-33-debris",
        "lat": -0.8612026552179858,
        "lon": 97.36469060868133,
        "alt_km": 889.6086415030841,
        "timestamp": "2025-12-02T08:59:33.099071+00:00",
        "meta_object_name": "IRIDIUM 33 DEB",
        "meta_object_id": "1997-051AK",
        "meta_epoch": "2025-12-02T02:49:59.253888",
        "meta_mean_motion": 14.25211612,
        "meta_eccentricity": 0.0113542,
        "meta_inclination": 86.2997,
        "meta_ra_of_asc_node": 97.529,
        "meta_arg_of_pericenter": 195.2947,
        "meta_mean_anomaly": 287.6732,
        "meta_ephemeris_type": 0,
        "meta_classification_type": "U",
        "meta_norad_cat_id": 33866,
        "meta_element_set_no": 999,
        "meta_rev_at_epoch": 86659,
        "meta_bstar": 0.00074119,
        "meta_mean_motion_dot": 1.881e-05,
        "meta_mean_motion_ddot": 0,
        "tle_line1": "1 33866U 97051AK  25336.11804692  .00001881  00000+0  74119-3 0  9990",
        "tle_line2": "2 33866  86.2997  97.5290 0113542 195.2947 287.6732 14.25211612866598"
      },
      "geometry": {
        "type": "Point",
        "coordinates": [
          97.36469060868133,
          -0.8612026552179858
        ]
      }
    },
    {
      "type": "Feature",
      "properties": {
        "norad_id": 33867,
        "name": "IRIDIUM 33 DEB",
        "group": "iridium-33-debris",
        "lat": 69.16568946158696,
        "lon": 5.049205562452265,
        "alt_km": 395.08238457126845,
        "timestamp": "2025-12-02T08:59:33.099082+00:00",
        "meta_object_name": "IRIDIUM 33 DEB",
        "meta_object_id": "1997-051AL",
        "meta_epoch": "2025-12-02T00:57:38.470176",
        "meta_mean_motion": 15.52551436,
        "meta_eccentricity": 0.0011753,
        "meta_inclination": 86.3629,
        "meta_ra_of_asc_node": 355.5967,
        "meta_arg_of_pericenter": 101.8942,
        "meta_mean_anomaly": 258.3637,
        "meta_ephemeris_type": 0,
        "meta_classification_type": "U",
        "meta_norad_cat_id": 33867,
        "meta_element_set_no": 999,
        "meta_rev_at_epoch": 89344,
        "meta_bstar": 0.0064553,
        "meta_mean_motion_dot": 0.00417107,
        "meta_mean_motion_ddot": 0,
        "tle_line1": "1 33867U 97051AL  25336.04002859  .00417107  00000+0  64553-2 0  9990",
        "tle_line2": "2 33867  86.3629 355.5967 0011753 101.8942 258.3637 15.52551436893444"
      },
      "geometry": {
        "type": "Point",
        "coordinates": [
          5.049205562452265,
          69.16568946158696
        ]
      }
    },
    {
      "type": "Feature",
      "properties": {
        "norad_id": 33870,
        "name": "IRIDIUM 33 DEB",
        "group": "iridium-33-debris",
        "lat": 51.364986109059494,
        "lon": 67.25110214725485,
        "alt_km": 748.6044584897008,
        "timestamp": "2025-12-02T08:59:33.099093+00:00",
        "meta_object_name": "IRIDIUM 33 DEB",
        "meta_object_id": "1997-051AP",
        "meta_epoch": "2025-12-01T23:35:59.044128",
        "meta_mean_motion": 14.45749725,
        "meta_eccentricity": 0.0020347,
        "meta_inclination": 86.3755,
        "meta_ra_of_asc_node": 62.8703,
        "meta_arg_of_pericenter": 214.0987,
        "meta_mean_anomaly": 321.9089,
        "meta_ephemeris_type": 0,
        "meta_classification_type": "U",
        "meta_norad_cat_id": 33870,
        "meta_element_set_no": 999,
        "meta_rev_at_epoch": 87981,
        "meta_bstar": 0.001022,
        "meta_mean_motion_dot": 3.648e-05,
        "meta_mean_motion_ddot": 0,
        "tle_line1": "1 33870U 97051AP  25335.98332227  .00003648  00000+0  10220-2 0  9994",
        "tle_line2": "2 33870  86.3755  62.8703 0020347 214.0987 321.9089 14.45749725879813"
      },
      "geometry": {
        "type": "Point",
        "coordinates": [
          67.25110214725485,
          51.364986109059494
        ]
      }
    },
    {
      "type": "Feature",
      "properties": {
        "norad_id": 33881,
        "name": "IRIDIUM 33 DEB",
        "group": "iridium-33-debris",
        "lat": -64.54726480917414,
        "lon": -61.12687053052955,
        "alt_km": 677.7497471054803,
        "timestamp": "2025-12-02T08:59:33.099104+00:00",
        "meta_object_name": "IRIDIUM 33 DEB",
        "meta_object_id": "1997-051BA",
        "meta_epoch": "2025-12-01T19:20:33.045792",
        "meta_mean_motion": 14.56252651,
        "meta_eccentricity": 0.0061043,
        "meta_inclination": 86.3869,
        "meta_ra_of_asc_node": 111.4914,
        "meta_arg_of_pericenter": 210.0929,
        "meta_mean_anomaly": 294.4565,
        "meta_ephemeris_type": 0,
        "meta_classification_type": "U",
        "meta_norad_cat_id": 33881,
        "meta_element_set_no": 999,
        "meta_rev_at_epoch": 87341,
        "meta_bstar": 0.0018925,
        "meta_mean_motion_dot": 8.609e-05,
        "meta_mean_motion_ddot": 0,
        "tle_line1": "1 33881U 97051BA  25335.80593803  .00008609  00000+0  18925-2 0  9998",
        "tle_line2": "2 33881  86.3869 111.4914 0061043 210.0929 294.4565 14.56252651873418"
      },
      "geometry": {
        "type": "Point",
        "coordinates": [
          -61.12687053052955,
          -64.54726480917414
        ]
      }
    },
    {
      "type": "Feature",
      "properties": {
        "norad_id": 33884,
        "name": "IRIDIUM 33 DEB",
        "group": "iridium-33-debris",
        "lat": 45.583053284306146,
        "lon": -169.21791900581735,
        "alt_km": 639.7405842264943,
        "timestamp": "2025-12-02T08:59:33.099118+00:00",
        "meta_object_name": "IRIDIUM 33 DEB",
        "meta_object_id": "1997-051BD",
        "meta_epoch": "2025-12-02T03:46:50.889216",
        "meta_mean_motion": 14.77106911,
        "meta_eccentricity": 0.0010806,
        "meta_inclination": 86.3703,
        "meta_ra_of_asc_node": 14.5944,
        "meta_arg_of_pericenter": 2.5334,
        "meta_mean_anomaly": 57.6114,
        "meta_ephemeris_type": 0,
        "meta_classification_type": "U",
        "meta_norad_cat_id": 33884,
        "meta_element_set_no": 999,
        "meta_rev_at_epoch": 88691,
        "meta_bstar": 0.0014763,
        "meta_mean_motion_dot": 0.00010468,
        "meta_mean_motion_ddot": 0,
        "tle_line1": "1 33884U 97051BD  25336.15753344  .00010468  00000+0  14763-2 0  9990",
        "tle_line2": "2 33884  86.3703  14.5944 0010806   2.5334  57.6114 14.77106911886917"
      },
      "geometry": {
        "type": "Point",
        "coordinates": [
          -169.21791900581735,
          45.583053284306146
        ]
      }
    }
  ]
}